start=new Date('2022-08-14T00:00:00.000Z').valueOf();
sats=[{"SITE":"AFETR","RCS_SIZE":"LARGE","COUNTRY_CODE":"US","PERIOD":"95.438","TLE_LINE1":"1 51136U 22005AJ  22225.85894353  .00001543  00000-0  11499-3 0  9993","MEAN_MOTION":"15.08840343","PERIAPSIS":"538.640","MEAN_MOTION_DOT":"0.00001543","CLASSIFICATION_TYPE":"U","OBJECT_ID":"2022-005AJ","TIME_SYSTEM":"UTC","INCLINATION":"53.2178","OBJECT_TYPE":"PAYLOAD","BSTAR":"0.00011499000000","EPOCH":"2022-08-13T20:36:52.720992","REV_AT_EPOCH":"3189","LAUNCH_DATE":"2022-01-19","ELEMENT_SET_NO":"999","MEAN_ELEMENT_THEORY":"SGP4","CENTER_NAME":"EARTH","OBJECT_NAME":"STARLINK-3253","RA_OF_ASC_NODE":"32.2526","APOAPSIS":"540.849","ARG_OF_PERICENTER":"60.9247","MEAN_ANOMALY":"299.1905","SEMIMAJOR_AXIS":"6917.879","REF_FRAME":"TEME","TLE_LINE2":"2 51136  53.2178  32.2526 0001597  60.9247 299.1905 15.08840343 31896","NORAD_CAT_ID":"51136","FILE":"3535825","ECCENTRICITY":"0.00015970","DECAY_DATE":null,"EPHEMERIS_TYPE":"0","MEAN_MOTION_DDOT":"0.0000000000000","GP_ID":"210165385"},{"OBJECT_NAME":"STARLINK-3180","CENTER_NAME":"EARTH","RA_OF_ASC_NODE":"32.5974","MEAN_ANOMALY":"301.4638","APOAPSIS":"541.053","ARG_OF_PERICENTER":"58.6535","TLE_LINE2":"2 51137  53.2191  32.5974 0001850  58.6535 301.4638 15.08830856 31896","REF_FRAME":"TEME","SEMIMAJOR_AXIS":"6917.908","LAUNCH_DATE":"2022-01-19","ELEMENT_SET_NO":"999","MEAN_ELEMENT_THEORY":"SGP4","ECCENTRICITY":"0.00018500","FILE":"3535825","DECAY_DATE":null,"EPHEMERIS_TYPE":"0","MEAN_MOTION_DDOT":"0.0000000000000","GP_ID":"210166136","NORAD_CAT_ID":"51137","PERIAPSIS":"538.494","CLASSIFICATION_TYPE":"U","MEAN_MOTION_DOT":"-0.00000272","TIME_SYSTEM":"UTC","OBJECT_ID":"2022-005AK","SITE":"AFETR","COUNTRY_CODE":"US","RCS_SIZE":"LARGE","PERIOD":"95.438","MEAN_MOTION":"15.08830856","TLE_LINE1":"1 51137U 22005AK  22225.78071464 -.00000272  00000-0  10271-5 0  9994","BSTAR":"0.00000102710000","EPOCH":"2022-08-13T18:44:13.744896","REV_AT_EPOCH":"3189","OBJECT_TYPE":"PAYLOAD","INCLINATION":"53.2191"},{"NORAD_CAT_ID":"51138","ECCENTRICITY":"0.00015460","FILE":"3535825","DECAY_DATE":null,"EPHEMERIS_TYPE":"0","MEAN_MOTION_DDOT":"0.0000000000000","GP_ID":"210164884","LAUNCH_DATE":"2022-01-19","ELEMENT_SET_NO":"999","MEAN_ELEMENT_THEORY":"SGP4","CENTER_NAME":"EARTH","OBJECT_NAME":"STARLINK-3177","RA_OF_ASC_NODE":"32.5523","APOAPSIS":"540.787","MEAN_ANOMALY":"304.2245","ARG_OF_PERICENTER":"55.8894","TLE_LINE2":"2 51138  53.2155  32.5523 0001546  55.8894 304.2245 15.08849051 31887","REF_FRAME":"TEME","SEMIMAJOR_AXIS":"6917.853","OBJECT_TYPE":"PAYLOAD","INCLINATION":"53.2155","BSTAR":"0.00011977000000","EPOCH":"2022-08-13T18:54:48.413376","REV_AT_EPOCH":"3188","SITE":"AFETR","COUNTRY_CODE":"US","RCS_SIZE":"LARGE","PERIOD":"95.437","MEAN_MOTION":"15.08849051","TLE_LINE1":"1 51138U 22005AL  22225.78806034  .00001619  00000-0  11977-3 0  9991","PERIAPSIS":"538.648","CLASSIFICATION_TYPE":"U","MEAN_MOTION_DOT":"0.00001619","TIME_SYSTEM":"UTC","OBJECT_ID":"2022-005AL"},{"EPOCH":"2022-08-13T20:09:00.271872","BSTAR":"-0.00012731000000","REV_AT_EPOCH":"3190","INCLINATION":"53.2185","OBJECT_TYPE":"PAYLOAD","PERIAPSIS":"538.703","TIME_SYSTEM":"UTC","OBJECT_ID":"2022-005AM","MEAN_MOTION_DOT":"-0.00002313","CLASSIFICATION_TYPE":"U","RCS_SIZE":"LARGE","COUNTRY_CODE":"US","SITE":"AFETR","TLE_LINE1":"1 51139U 22005AM  22225.83958648 -.00002313  00000-0 -12731-3 0  9990","MEAN_MOTION":"15.08838005","PERIOD":"95.438","DECAY_DATE":null,"FILE":"3535825","ECCENTRICITY":"0.00015160","GP_ID":"210164634","EPHEMERIS_TYPE":"0","MEAN_MOTION_DDOT":"0.0000000000000","NORAD_CAT_ID":"51139","RA_OF_ASC_NODE":"32.3295","CENTER_NAME":"EARTH","OBJECT_NAME":"STARLINK-3172","SEMIMAJOR_AXIS":"6917.886","REF_FRAME":"TEME","TLE_LINE2":"2 51139  53.2185  32.3295 0001516  61.5060 298.6085 15.08838005 31909","ARG_OF_PERICENTER":"61.5060","APOAPSIS":"540.800","MEAN_ANOMALY":"298.6085","ELEMENT_SET_NO":"999","LAUNCH_DATE":"2022-01-19","MEAN_ELEMENT_THEORY":"SGP4"},{"PERIAPSIS":"538.549","MEAN_MOTION_DOT":"-0.00001580","CLASSIFICATION_TYPE":"U","TIME_SYSTEM":"UTC","OBJECT_ID":"2022-005AN","SITE":"AFETR","RCS_SIZE":"LARGE","COUNTRY_CODE":"US","PERIOD":"95.438","TLE_LINE1":"1 51140U 22005AN  22225.85062857 -.00001580  00000-0 -81210-4 0  9996","MEAN_MOTION":"15.08836363","BSTAR":"-0.00008121000000","EPOCH":"2022-08-13T20:24:54.308448","REV_AT_EPOCH":"3190","INCLINATION":"53.2167","OBJECT_TYPE":"PAYLOAD","CENTER_NAME":"EARTH","OBJECT_NAME":"STARLINK-3175","RA_OF_ASC_NODE":"32.2816","APOAPSIS":"540.964","MEAN_ANOMALY":"296.8095","ARG_OF_PERICENTER":"63.3076","SEMIMAJOR_AXIS":"6917.892","TLE_LINE2":"2 51140  53.2167  32.2816 0001746  63.3076 296.8095 15.08836363 31907","REF_FRAME":"TEME","LAUNCH_DATE":"2022-01-19","ELEMENT_SET_NO":"999","MEAN_ELEMENT_THEORY":"SGP4","FILE":"3535825","ECCENTRICITY":"0.00017460","DECAY_DATE":null,"EPHEMERIS_TYPE":"0","MEAN_MOTION_DDOT":"0.0000000000000","GP_ID":"210165886","NORAD_CAT_ID":"51140"},{"MEAN_MOTION_DDOT":"0.0000000000000","EPHEMERIS_TYPE":"0","GP_ID":"210165636","FILE":"3535825","ECCENTRICITY":"0.00015520","DECAY_DATE":null,"NORAD_CAT_ID":"51141","APOAPSIS":"540.842","ARG_OF_PERICENTER":"56.5670","MEAN_ANOMALY":"303.5470","SEMIMAJOR_AXIS":"6917.903","TLE_LINE2":"2 51141  53.2202  32.3694 0001552  56.5670 303.5470 15.08832618 31904","REF_FRAME":"TEME","CENTER_NAME":"EARTH","OBJECT_NAME":"STARLINK-3179","RA_OF_ASC_NODE":"32.3694","MEAN_ELEMENT_THEORY":"SGP4","LAUNCH_DATE":"2022-01-19","ELEMENT_SET_NO":"999","REV_AT_EPOCH":"3190","BSTAR":"0.00002658800000","EPOCH":"2022-08-13T19:58:24.867264","INCLINATION":"53.2202","OBJECT_TYPE":"PAYLOAD","MEAN_MOTION_DOT":"0.00000135","CLASSIFICATION_TYPE":"U","OBJECT_ID":"2022-005AP","TIME_SYSTEM":"UTC","PERIAPSIS":"538.694","PERIOD":"95.438","TLE_LINE1":"1 51141U 22005AP  22225.83223226  .00000135  00000-0  26588-4 0  9994","MEAN_MOTION":"15.08832618","SITE":"AFETR","RCS_SIZE":"LARGE","COUNTRY_CODE":"US"},{"CENTER_NAME":"EARTH","OBJECT_NAME":"STARLINK-3369","RA_OF_ASC_NODE":"21.9812","ARG_OF_PERICENTER":"46.2076","APOAPSIS":"540.839","MEAN_ANOMALY":"82.6750","TLE_LINE2":"2 51142  53.2173  21.9812 0001549  46.2076  82.6750 15.08832845  1309","REF_FRAME":"TEME","SEMIMAJOR_AXIS":"6917.902","LAUNCH_DATE":"2022-01-19","ELEMENT_SET_NO":"999","MEAN_ELEMENT_THEORY":"SGP4","ECCENTRICITY":"0.00015490","FILE":"3535825","DECAY_DATE":null,"EPHEMERIS_TYPE":"0","MEAN_MOTION_DDOT":"0.0000000000000","GP_ID":"210164384","NORAD_CAT_ID":"51142","PERIAPSIS":"538.696","CLASSIFICATION_TYPE":"U","MEAN_MOTION_DOT":"0.00007102","OBJECT_ID":"2022-005AQ","TIME_SYSTEM":"UTC","SITE":"AFETR","COUNTRY_CODE":"US","RCS_SIZE":"LARGE","PERIOD":"95.438","MEAN_MOTION":"15.08832845","TLE_LINE1":"1 51142U 22005AQ  22225.91667824  .00007102  00000-0  46397-3 0  9990","BSTAR":"0.00046397000000","EPOCH":"2022-08-13T22:00:00.999936","REV_AT_EPOCH":"130","OBJECT_TYPE":"PAYLOAD","INCLINATION":"53.2173"},{"EPOCH":"2022-08-13T19:35:53.128032","BSTAR":"0.00000655110000","REV_AT_EPOCH":"3175","INCLINATION":"53.2172","OBJECT_TYPE":"PAYLOAD","PERIAPSIS":"538.217","TIME_SYSTEM":"UTC","OBJECT_ID":"2022-005AR","MEAN_MOTION_DOT":"-0.00000184","CLASSIFICATION_TYPE":"U","RCS_SIZE":"LARGE","COUNTRY_CODE":"US","SITE":"AFETR","TLE_LINE1":"1 51143U 22005AR  22225.81658713 -.00000184  00000-0  65511-5 0  9992","MEAN_MOTION":"15.08837706","PERIOD":"95.438","DECAY_DATE":null,"FILE":"3535825","ECCENTRICITY":"0.00022190","GP_ID":"210165135","EPHEMERIS_TYPE":"0","MEAN_MOTION_DDOT":"0.0000000000000","NORAD_CAT_ID":"51143","RA_OF_ASC_NODE":"42.4478","OBJECT_NAME":"STARLINK-3184","CENTER_NAME":"EARTH","SEMIMAJOR_AXIS":"6917.887","REF_FRAME":"TEME","TLE_LINE2":"2 51143  53.2172  42.4478 0002219  81.7875 278.3369 15.08837706 31754","ARG_OF_PERICENTER":"81.7875","APOAPSIS":"541.287","MEAN_ANOMALY":"278.3369","ELEMENT_SET_NO":"999","LAUNCH_DATE":"2022-01-19","MEAN_ELEMENT_THEORY":"SGP4"},{"REV_AT_EPOCH":"3190","BSTAR":"0.00010743000000","EPOCH":"2022-08-13T20:03:42.143616","INCLINATION":"53.2190","OBJECT_TYPE":"PAYLOAD","MEAN_MOTION_DOT":"0.00001422","CLASSIFICATION_TYPE":"U","TIME_SYSTEM":"UTC","OBJECT_ID":"2022-005AS","PERIAPSIS":"538.637","PERIOD":"95.438","TLE_LINE1":"1 51144U 22005AS  22225.83590444  .00001422  00000-0  10743-3 0  9991","MEAN_MOTION":"15.08838219","SITE":"AFETR","RCS_SIZE":"LARGE","COUNTRY_CODE":"US","EPHEMERIS_TYPE":"0","MEAN_MOTION_DDOT":"0.0000000000000","GP_ID":"210165386","FILE":"3535825","ECCENTRICITY":"0.00016100","DECAY_DATE":null,"NORAD_CAT_ID":"51144","ARG_OF_PERICENTER":"67.5087","APOAPSIS":"540.865","MEAN_ANOMALY":"292.6076","SEMIMAJOR_AXIS":"6917.886","REF_FRAME":"TEME","TLE_LINE2":"2 51144  53.2190  32.3483 0001610  67.5087 292.6076 15.08838219 31901","CENTER_NAME":"EARTH","OBJECT_NAME":"STARLINK-3185","RA_OF_ASC_NODE":"32.3483","MEAN_ELEMENT_THEORY":"SGP4","LAUNCH_DATE":"2022-01-19","ELEMENT_SET_NO":"999"},{"MEAN_ANOMALY":"272.3840","APOAPSIS":"541.230","ARG_OF_PERICENTER":"87.7400","TLE_LINE2":"2 51145  53.2165  42.1645 0002171  87.7400 272.3840 15.08845780 31768","REF_FRAME":"TEME","SEMIMAJOR_AXIS":"6917.863","OBJECT_NAME":"STARLINK-3365","CENTER_NAME":"EARTH","RA_OF_ASC_NODE":"42.1645","MEAN_ELEMENT_THEORY":"SGP4","LAUNCH_DATE":"2022-01-19","ELEMENT_SET_NO":"999","EPHEMERIS_TYPE":"0","MEAN_MOTION_DDOT":"0.0000000000000","GP_ID":"210166137","ECCENTRICITY":"0.00021710","FILE":"3535825","DECAY_DATE":null,"NORAD_CAT_ID":"51145","CLASSIFICATION_TYPE":"U","MEAN_MOTION_DOT":"0.00001275","OBJECT_ID":"2022-005AT","TIME_SYSTEM":"UTC","PERIAPSIS":"538.226","PERIOD":"95.437","MEAN_MOTION":"15.08845780","TLE_LINE1":"1 51145U 22005AT  22225.87914705  .00001275  00000-0  98191-4 0  9996","SITE":"AFETR","COUNTRY_CODE":"US","RCS_SIZE":"LARGE","REV_AT_EPOCH":"3176","BSTAR":"0.00009819100000","EPOCH":"2022-08-13T21:05:58.305120","OBJECT_TYPE":"PAYLOAD","INCLINATION":"53.2165"}];
